{
  "type": "FeatureCollection",
  "features": [
    {
      "type": "Feature",
      "properties": {
        "norad_id": 36828,
        "name": "BEIDOU-2 IGSO-1 (C06)",
        "group": "beidou",
        "lat": -54.092920716452895,
        "lon": 68.88357719865566,
        "alt_km": 35653.889100895634,
        "timestamp": "2025-12-15T15:53:20.117791+00:00",
        "meta_object_name": "BEIDOU-2 IGSO-1 (C06)",
        "meta_object_id": "2010-036A",
        "meta_epoch": "2025-12-14T21:38:21.623424",
        "meta_mean_motion": 1.00275796,
        "meta_eccentricity": 0.00512569,
        "meta_inclination": 54.2866,
        "meta_ra_of_asc_node": 164.6279,
        "meta_arg_of_pericenter": 215.8888,
        "meta_mean_anomaly": 135.7931,
        "meta_ephemeris_type": 0,
        "meta_classification_type": "U",
        "meta_norad_cat_id": 36828,
        "meta_element_set_no": 999,
        "meta_rev_at_epoch": 5624,
        "meta_bstar": 0,
        "meta_mean_motion_dot": -2.4e-07,
        "meta_mean_motion_ddot": 0,
        "tle_line1": "1 36828U 10036A   25348.90163916 -.00000024  00000+0  00000+0 0  9999",
        "tle_line2": "2 36828  54.2866 164.6279 0051256 215.8888 135.7931  1.00275796 56247"
      },
      "geometry": {
        "type": "Point",
        "coordinates": [
          68.88357719865566,
          -54.092920716452895
        ]
      }
    },
    {
      "type": "Feature",
      "properties": {
        "norad_id": 37210,
        "name": "BEIDOU-2 G4 (C04)",
        "group": "beidou",
        "lat": 2.5616240580099623,
        "lon": 122.8422465423322,
        "alt_km": 35819.76612994286,
        "timestamp": "2025-12-15T15:53:20.117812+00:00",
        "meta_object_name": "BEIDOU-2 G4 (C04)",
        "meta_object_id": "2010-057A",
        "meta_epoch": "2025-12-14T21:01:39.976032",
        "meta_mean_motion": 1.00271828,
        "meta_eccentricity": 0.0010669,
        "meta_inclination": 3.1901,
        "meta_ra_of_asc_node": 69.9323,
        "meta_arg_of_pericenter": 191.8324,
        "meta_mean_anomaly": 297.5165,
        "meta_ephemeris_type": 0,
        "meta_classification_type": "U",
        "meta_norad_cat_id": 37210,
        "meta_element_set_no": 999,
        "meta_rev_at_epoch": 5544,
        "meta_bstar": 0,
        "meta_mean_motion_dot": -9.3e-07,
        "meta_mean_motion_ddot": 0,
        "tle_line1": "1 37210U 10057A   25348.87615713 -.00000093  00000+0  00000+0 0  9997",
        "tle_line2": "2 37210   3.1901  69.9323 0010669 191.8324 297.5165  1.00271828 55443"
      },
      "geometry": {
        "type": "Point",
        "coordinates": [
          122.8422465423322,
          2.5616240580099623
        ]
      }
    },
    {
      "type": "Feature",
      "properties": {
        "norad_id": 37256,
        "name": "BEIDOU-2 IGSO-2 (C07)",
        "group": "beidou",
        "lat": 17.524545857073267,
        "lon": 77.51904040041352,
        "alt_km": 35678.16195708555,
        "timestamp": "2025-12-15T15:53:20.117825+00:00",
        "meta_object_name": "BEIDOU-2 IGSO-2 (C07)",
        "meta_object_id": "2010-068A",
        "meta_epoch": "2025-12-14T17:43:21.584928",
        "meta_mean_motion": 1.00286059,
        "meta_eccentricity": 0.00486596,
        "meta_inclination": 47.8819,
        "meta_ra_of_asc_node": 274.1236,
        "meta_arg_of_pericenter": 216.4437,
        "meta_mean_anomaly": 326.6295,
        "meta_ephemeris_type": 0,
        "meta_classification_type": "U",
        "meta_norad_cat_id": 37256,
        "meta_element_set_no": 999,
        "meta_rev_at_epoch": 5494,
        "meta_bstar": 0,
        "meta_mean_motion_dot": -2.25e-06,
        "meta_mean_motion_ddot": 0,
        "tle_line1": "1 37256U 10068A   25348.73844427 -.00000225  00000+0  00000+0 0  9997",
        "tle_line2": "2 37256  47.8819 274.1236 0048659 216.4437 326.6295  1.00286059 54942"
      },
      "geometry": {
        "type": "Point",
        "coordinates": [
          77.51904040041352,
          17.524545857073267
        ]
      }
    },
    {
      "type": "Feature",
      "properties": {
        "norad_id": 37384,
        "name": "BEIDOU-2 IGSO-3 (C08)",
        "group": "beidou",
        "lat": 24.77124384421219,
        "lon": 56.02291144707205,
        "alt_km": 35924.12728613409,
        "timestamp": "2025-12-15T15:53:20.117836+00:00",
        "meta_object_name": "BEIDOU-2 IGSO-3 (C08)",
        "meta_object_id": "2011-013A",
        "meta_epoch": "2025-12-14T15:18:38.168064",
        "meta_mean_motion": 1.00270472,
        "meta_eccentricity": 0.00354241,
        "meta_inclination": 62.1463,
        "meta_ra_of_asc_node": 41.8972,
        "meta_arg_of_pericenter": 187.6123,
        "meta_mean_anomaly": 191.2166,
        "meta_ephemeris_type": 0,
        "meta_classification_type": "U",
        "meta_norad_cat_id": 37384,
        "meta_element_set_no": 999,
        "meta_rev_at_epoch": 5381,
        "meta_bstar": 0,
        "meta_mean_motion_dot": -1.94e-06,
        "meta_mean_motion_ddot": 0,
        "tle_line1": "1 37384U 11013A   25348.63794176 -.00000194  00000+0  00000+0 0  9999",
        "tle_line2": "2 37384  62.1463  41.8972 0035424 187.6123 191.2166  1.00270472 53812"
      },
      "geometry": {
        "type": "Point",
        "coordinates": [
          56.02291144707205,
          24.77124384421219
        ]
      }
    },
    {
      "type": "Feature",
      "properties": {
        "norad_id": 37763,
        "name": "BEIDOU-2 IGSO-4 (C09)",
        "group": "beidou",
        "lat": -50.224051396042896,
        "lon": 46.1881238417814,
        "alt_km": 35197.73695468873,
        "timestamp": "2025-12-15T15:53:20.117848+00:00",
        "meta_object_name": "BEIDOU-2 IGSO-4 (C09)",
        "meta_object_id": "2011-038A",
        "meta_epoch": "2025-12-10T12:04:03.489024",
        "meta_mean_motion": 1.00284678,
        "meta_eccentricity": 0.01490344,
        "meta_inclination": 54.5829,
        "meta_ra_of_asc_node": 167.3658,
        "meta_arg_of_pericenter": 230.2355,
        "meta_mean_anomaly": 317.2212,
        "meta_ephemeris_type": 0,
        "meta_classification_type": "U",
        "meta_norad_cat_id": 37763,
        "meta_element_set_no": 999,
        "meta_rev_at_epoch": 5275,
        "meta_bstar": 0,
        "meta_mean_motion_dot": 3.6e-07,
        "meta_mean_motion_ddot": 0,
        "tle_line1": "1 37763U 11038A   25344.50281816  .00000036  00000+0  00000+0 0  9995",
        "tle_line2": "2 37763  54.5829 167.3658 0149034 230.2355 317.2212  1.00284678 52751"
      },
      "geometry": {
        "type": "Point",
        "coordinates": [
          46.1881238417814,
          -50.224051396042896
        ]
      }
    },
    {
      "type": "Feature",
      "properties": {
        "norad_id": 37948,
        "name": "BEIDOU-2 IGSO-5 (C10)",
        "group": "beidou",
        "lat": 27.907884683697098,
        "lon": 65.37120955175864,
        "alt_km": 35702.13950996844,
        "timestamp": "2025-12-15T15:53:20.117859+00:00",
        "meta_object_name": "BEIDOU-2 IGSO-5 (C10)",
        "meta_object_id": "2011-073A",
        "meta_epoch": "2025-12-12T18:24:47.608416",
        "meta_mean_motion": 1.00291151,
        "meta_eccentricity": 0.01101752,
        "meta_inclination": 48.0199,
        "meta_ra_of_asc_node": 273.857,
        "meta_arg_of_pericenter": 222.308,
        "meta_mean_anomaly": 314.7254,
        "meta_ephemeris_type": 0,
        "meta_classification_type": "U",
        "meta_norad_cat_id": 37948,
        "meta_element_set_no": 999,
        "meta_rev_at_epoch": 5126,
        "meta_bstar": 0,
        "meta_mean_motion_dot": -2.21e-06,
        "meta_mean_motion_ddot": 0,
        "tle_line1": "1 37948U 11073A   25346.76721769 -.00000221  00000+0  00000+0 0  9992",
        "tle_line2": "2 37948  48.0199 273.8570 0110175 222.3080 314.7254  1.00291151 51268"
      },
      "geometry": {
        "type": "Point",
        "coordinates": [
          65.37120955175864,
          27.907884683697098
        ]
      }
    },
    {
      "type": "Feature",
      "properties": {
        "norad_id": 38091,
        "name": "BEIDOU-2 G5 (C05)",
        "group": "beidou",
        "lat": -2.3309223359466094,
        "lon": 21.913503503281007,
        "alt_km": 35778.283933618375,
        "timestamp": "2025-12-15T15:53:20.117871+00:00",
        "meta_object_name": "BEIDOU-2 G5 (C05)",
        "meta_object_id": "2012-008A",
        "meta_epoch": "2025-12-14T22:15:32.898240",
        "meta_mean_motion": 1.00276646,
        "meta_eccentricity": 0.00125198,
        "meta_inclination": 3.1149,
        "meta_ra_of_asc_node": 70.7041,
        "meta_arg_of_pericenter": 228.6209,
        "meta_mean_anomaly": 177.2276,
        "meta_ephemeris_type": 0,
        "meta_classification_type": "U",
        "meta_norad_cat_id": 38091,
        "meta_element_set_no": 999,
        "meta_rev_at_epoch": 5052,
        "meta_bstar": 0,
        "meta_mean_motion_dot": 7.4e-07,
        "meta_mean_motion_ddot": 0,
        "tle_line1": "1 38091U 12008A   25348.92746410  .00000074  00000+0  00000+0 0  9996",
        "tle_line2": "2 38091   3.1149  70.7041 0012519 228.6209 177.2276  1.00276646 50523"
      },
      "geometry": {
        "type": "Point",
        "coordinates": [
          21.913503503281007,
          -2.3309223359466094
        ]
      }
    }
  ]
}